NORAD_CAT_ID,OBJECT_NAME,OBJECT_TYPE,EPOCH,MEAN_MOTION,ECCENTRICITY,INCLINATION,RA_OF_ASC_NODE,ARG_OF_PERICENTER,MEAN_ANOMALY,BSTAR,MEAN_MOTION_DOT,MEAN_MOTION_DDOT,TLE_LINE0,TLE_LINE1,TLE_LINE2,SEMIMAJOR_AXIS,PERIOD,APOGEE,PERIGEE,DECAYED
51861.0,STARLINK-3562,PAYLOAD,2023-08-14 02:12:24,15.08839247,9.77e-05,53.2153,262.6506,91.188,268.9224,4.4902e-05,4.27e-06,0.0,0 STARLINK-3562,1 51861U 22022K   23226.09195182  .00000427  00000-0  44902-4 0  9995,2 51861  53.2153 262.6506 0000977  91.1880 268.9224 15.08839247 81402,6917.883,95.438,540.424,539.072,0.0
51861.0,STARLINK-3562,PAYLOAD,2023-08-15 08:24:44,15.08839881,0.0001112,53.216,257.0009,87.3889,272.723,7.5339e-05,9.11e-06,0.0,0 STARLINK-3562,1 51861U 22022K   23227.35051094  .00000911  00000-0  75339-4 0  9994,2 51861  53.2160 257.0009 0001112  87.3889 272.7230 15.08839881 81598,6917.881,95.438,540.515,538.976,0.0
51861.0,STARLINK-3562,PAYLOAD,2023-08-17 01:44:45,15.0883916,0.000115,53.2158,249.2686,88.0667,272.0457,4.7868e-05,4.74e-06,0.0,0 STARLINK-3562,1 51861U 22022K   23229.07275392  .00000474  00000-0  47868-4 0  9994,2 51861  53.2158 249.2686 0001150  88.0667 272.0457 15.08839160 81856,6917.883,95.438,540.544,538.952,0.0
51861.0,STARLINK-3562,PAYLOAD,2023-08-18 07:57:05,15.08839015,0.0001242,53.2163,243.619,99.0542,261.0591,5.2517e-05,5.48e-06,0.0,0 STARLINK-3562,1 51861U 22022K   23230.33131428  .00000548  00000-0  52517-4 0  9995,2 51861  53.2163 243.6190 0001242  99.0542 261.0591 15.08839015 82044,6917.883,95.438,540.608,538.889,0.0
51861.0,STARLINK-3562,PAYLOAD,2023-08-20 01:17:07,15.08835268,0.0001362,53.2169,235.889,99.8841,260.2305,2.3941e-05,9.3e-07,0.0,0 STARLINK-3562,1 51861U 22022K   23232.05356063  .00000093  00000-0  23941-4 0  9994,2 51861  53.2169 235.8890 0001362  99.8841 260.2305 15.08835268 82302,6917.895,95.438,540.702,538.818,0.0
51861.0,STARLINK-3562,PAYLOAD,2023-08-21 04:18:40,15.08840314,0.0001314,53.2162,230.832,93.6468,266.4674,9.8801e-05,1.285e-05,0.0,0 STARLINK-3562,1 51861U 22022K   23233.17963740  .00001285  00000-0  98801-4 0  9995,2 51861  53.2162 230.8320 0001314  93.6468 266.4674 15.08840314 82475,6917.879,95.438,540.653,538.835,0.0
51861.0,STARLINK-3562,PAYLOAD,2023-08-22 08:55:37,15.08842375,0.0001375,53.2163,225.4785,88.5085,271.6065,8.2385e-05,1.024e-05,0.0,0 STARLINK-3562,1 51861U 22022K   23234.37195771  .00001024  00000-0  82385-4 0  9990,2 51861  53.2163 225.4785 0001375  88.5085 271.6065 15.08842375 82657,6917.873,95.437,540.689,538.787,0.0
51861.0,STARLINK-3562,PAYLOAD,2023-08-23 08:46:24,15.08838265,0.0001374,53.2167,221.0182,95.6194,264.4955,8.9986e-05,1.144e-05,0.0,0 STARLINK-3562,1 51861U 22022K   23235.36555997  .00001144  00000-0  89986-4 0  9997,2 51861  53.2167 221.0182 0001374  95.6194 264.4955 15.08838265 82801,6917.886,95.438,540.701,538.8,0.0
51861.0,STARLINK-3562,PAYLOAD,2023-08-24 08:37:11,15.08837378,0.0001394,53.2161,216.5576,89.9972,270.118,-1.2979e-06,-3.09e-06,0.0,0 STARLINK-3562,1 51861U 22022K   23236.35916403 -.00000309  00000-0 -12979-5 0  9993,2 51861  53.2161 216.5576 0001394  89.9972 270.1180 15.08837378 82957,6917.888,95.438,540.718,538.789,0.0
51861.0,STARLINK-3562,PAYLOAD,2023-08-25 03:41:49,15.08838774,0.0001283,53.2157,212.9896,87.9548,272.1591,7.731e-05,9.43e-06,0.0,0 STARLINK-3562,1 51861U 22022K   23237.15404094  .00000943  00000-0  77310-4 0  9991,2 51861  53.2157 212.9896 0001283  87.9548 272.1591 15.08838774 83007,6917.884,95.438,540.637,538.862,0.0
51861.0,STARLINK-3562,PAYLOAD,2023-08-25 21:11:03,15.08837026,0.0001283,53.2157,209.7192,89.55,270.5639,8.5787e-05,1.078e-05,0.0,0 STARLINK-3562,1 51861U 22022K   23237.88268275  .00001078  00000-0  85787-4 0  9997,2 51861  53.2157 209.7192 0001283  89.5500 270.5639 15.08837026 83112,6917.889,95.438,540.642,538.867,0.0
51861.0,STARLINK-3562,PAYLOAD,2023-08-26 08:18:45,15.08843322,0.0001282,53.2158,207.6376,91.7896,268.3243,8.6185e-05,1.084e-05,0.0,0 STARLINK-3562,1 51861U 22022K   23238.34635884  .00001084  00000-0  86185-4 0  9993,2 51861  53.2158 207.6376 0001282  91.7896 268.3243 15.08843322 83185,6917.87,95.437,540.622,538.848,0.0
51861.0,STARLINK-3562,PAYLOAD,2023-08-27 01:48:00,15.0883525,0.0001373,53.2159,204.3662,103.2136,256.9009,1.3121e-05,-7.9e-07,0.0,0 STARLINK-3562,1 51861U 22022K   23239.07500680 -.00000079  00000-0  13121-4 0  9993,2 51861  53.2159 204.3662 0001373 103.2136 256.9009 15.08835250 83369,6917.895,95.438,540.71,538.81,0.0
51861.0,STARLINK-3562,PAYLOAD,2023-08-27 06:34:09,15.08837037,0.0001454,53.2168,203.4733,106.1518,253.9634,3.4418e-05,2.6e-06,0.0,0 STARLINK-3562,1 51861U 22022K   23239.27372551  .00000260  00000-0  34418-4 0  9992,2 51861  53.2168 203.4733 0001454 106.1518 253.9634 15.08837037 83326,6917.889,95.438,540.76,538.749,0.0
51861.0,STARLINK-3562,PAYLOAD,2023-08-28 08:00:19,15.08844503,0.0001635,53.2173,198.7158,99.8539,260.2637,-1.1857e-05,-4.77e-06,0.0,0 STARLINK-3562,1 51861U 22022K   23240.33356422 -.00000477  00000-0 -11857-4 0  9994,2 51861  53.2173 198.7158 0001635  99.8539 260.2637 15.08844503 83556,6917.867,95.437,540.863,538.601,0.0
51861.0,STARLINK-3562,PAYLOAD,2023-08-28 20:43:25,15.08836325,0.0001359,53.2163,196.3372,92.0983,268.0165,7.2846e-05,8.72e-06,0.0,0 STARLINK-3562,1 51861U 22022K   23240.86348770  .00000872  00000-0  72846-4 0  9991,2 51861  53.2163 196.3372 0001359  92.0983 268.0165 15.08836325 83564,6917.892,95.438,540.697,538.816,0.0
51861.0,STARLINK-3562,PAYLOAD,2023-08-29 06:15:43,15.08844522,0.0001346,53.2162,194.5535,93.647,266.4677,0.00010708,1.417e-05,0.0,0 STARLINK-3562,1 51861U 22022K   23241.26092166  .00001417  00000-0  10708-3 0  9995,2 51861  53.2162 194.5535 0001346  93.6470 266.4677 15.08844522 83623,6917.867,95.437,540.663,538.8,0.0
51861.0,STARLINK-3562,PAYLOAD,2023-08-30 01:20:22,15.08834354,0.0001448,53.2169,190.9849,89.7551,270.3607,-2.0444e-05,-6.13e-06,0.0,0 STARLINK-3562,1 51861U 22022K   23242.05581468 -.00000613  00000-0 -20444-4 0  9999,2 51861  53.2169 190.9849 0001448  89.7551 270.3607 15.08834354 83817,6917.898,95.438,540.764,538.761,0.0
51861.0,STARLINK-3562,PAYLOAD,2023-08-30 14:03:26,15.08840295,0.0001208,53.2167,188.6066,92.3397,267.7733,2.0567e-05,3.9e-07,0.0,0 STARLINK-3562,1 51861U 22022K   23242.58572914  .00000039  00000-0  20567-4 0  9999,2 51861  53.2167 188.6066 0001208  92.3397 267.7733 15.08840295 83891,6917.879,95.438,540.58,538.909,0.0
51861.0,STARLINK-3562,PAYLOAD,2023-08-31 05:57:16,15.08859074,0.0001165,53.217,185.6331,95.5634,264.5491,0.00014823,2.073e-05,0.0,0 STARLINK-3562,1 51861U 22022K   23243.24811281  .00002073  00000-0  14823-3 0  9993,2 51861  53.2170 185.6331 0001165  95.5634 264.5491 15.08859074 83990,6917.822,95.436,540.493,538.881,0.0
51861.0,STARLINK-3562,PAYLOAD,2023-08-31 20:15:47,15.08831086,0.0001411,53.2166,182.9567,88.1107,272.0047,6.9436e-05,8.17e-06,0.0,0 STARLINK-3562,1 51861U 22022K   23243.84429417  .00000817  00000-0  69436-4 0  9990,2 51861  53.2166 182.9567 0001411  88.1107 272.0047 15.08831086 84011,6917.908,95.438,540.749,538.797,0.0
51861.0,STARLINK-3562,PAYLOAD,2023-09-01 02:37:19,15.08831449,0.0001185,53.2168,181.7679,82.9856,277.1271,7.6597e-05,9.31e-06,0.0,0 STARLINK-3562,1 51861U 22022K   23244.10925505  .00000931  00000-0  76597-4 0  9992,2 51861  53.2168 181.7679 0001185  82.9856 277.1271 15.08831449 84125,6917.907,95.438,540.591,538.952,0.0
51861.0,STARLINK-3562,PAYLOAD,2023-09-01 05:48:05,15.08838753,0.0001331,53.2166,181.1726,86.6679,273.4466,7.0834e-05,8.4e-06,0.0,0 STARLINK-3562,1 51861U 22022K   23244.24173099  .00000840  00000-0  70834-4 0  9997,2 51861  53.2166 181.1726 0001331  86.6679 273.4466 15.08838753 84149,6917.884,95.438,540.67,538.828,0.0
51861.0,STARLINK-3562,PAYLOAD,2023-09-01 23:17:19,15.08819613,8.45e-05,53.2153,177.9037,275.435,84.6545,0.00035868,5.422e-05,0.0,0 STARLINK-3562,1 51861U 22022K   23244.97036882  .00005422  00000-0  35868-3 0  9993,2 51861  53.2153 177.9037 0000845 275.4350  84.6545 15.08819613 84252,6917.943,95.439,540.392,539.223,0.0
51861.0,STARLINK-3562,PAYLOAD,2023-09-02 04:03:28,15.08844628,0.000168,53.2155,177.0107,83.9919,276.1264,0.00012989,1.78e-05,0.0,0 STARLINK-3562,1 51861U 22022K   23245.16908495  .00001780  00000-0  12989-3 0  9995,2 51861  53.2155 177.0107 0001680  83.9919 276.1264 15.08844628 84287,6917.866,95.437,540.893,538.569,0.0
51861.0,STARLINK-3562,PAYLOAD,2023-09-02 19:57:20,15.0883942,0.0001973,53.2174,174.0364,77.9595,282.1618,7.5418e-05,9.12e-06,0.0,0 STARLINK-3562,1 51861U 22022K   23245.83148979  .00000912  00000-0  75418-4 0  9995,2 51861  53.2174 174.0364 0001973  77.9595 282.1618 15.08839420 84316,6917.882,95.438,541.112,538.382,0.0
51861.0,STARLINK-3562,PAYLOAD,2023-09-03 02:18:53,15.08840655,0.0001192,53.2164,172.8472,89.2419,270.8709,9.0495e-05,1.153e-05,0.0,0 STARLINK-3562,1 51861U 22022K   23246.09645152  .00001153  00000-0  90495-4 0  9999,2 51861  53.2164 172.8472 0001192  89.2419 270.8709 15.08840655 84424,6917.878,95.438,540.568,538.919,0.0
51861.0,STARLINK-3562,PAYLOAD,2023-09-03 11:51:12,15.0883939,0.0001166,53.216,171.0634,88.2947,271.8179,2.6807e-05,1.39e-06,0.0,0 STARLINK-3562,1 51861U 22022K   23246.49389347  .00000139  00000-0  26807-4 0  9993,2 51861  53.2160 171.0634 0001166  88.2947 271.8179 15.08839390 84412,6917.882,95.438,540.554,538.941,0.0
51861.0,STARLINK-3562,PAYLOAD,2023-09-04 02:09:41,15.08829954,0.0001325,53.2173,168.3888,98.2351,261.8791,-0.00010959,-2.031e-05,0.0,0 STARLINK-3562,1 51861U 22022K   23247.09006646 -.00002031  00000-0 -10959-3 0  9993,2 51861  53.2173 168.3888 0001325  98.2351 261.8791 15.08829954 84574,6917.911,95.438,540.693,538.859,0.0
51861.0,STARLINK-3562,PAYLOAD,2023-09-04 11:42:00,15.08830503,0.0001259,53.2189,166.6033,91.1747,268.939,6.2188e-05,7.02e-06,0.0,0 STARLINK-3562,1 51861U 22022K   23247.48750400  .00000702  00000-0  62188-4 0  9993,2 51861  53.2189 166.6033 0001259  91.1747 268.9390 15.08830503 84565,6917.909,95.438,540.645,538.903,0.0
